{"type": "FeatureCollection", "features": [ {"type": "Feature", "properties": {"norad_id": 33917, "name": "COSMOS 2251 DEB", "group": "cosmos-2251-debris", "lat": -71.10624341411791, "lon": 77.72579239980831, "alt_km": 828.6356726698332, "timestamp": "2025-12-05T14:45:15.690547+00:00", "meta": {"OBJECT_NAME": "COSMOS 2251 DEB", "OBJECT_ID": "1993-036DW", "EPOCH": "2025-12-04T11:05:09.672000", "MEAN_MOTION": 13.69340059, "ECCENTRICITY": 0.0331095, "INCLINATION": 74.1065, "RA_OF_ASC_NODE": 135.966, "ARG_OF_PERICENTER": 238.7448, "MEAN_ANOMALY": 118.0848, "EPHEMERIS_TYPE": 0, "CLASSIFICATION_TYPE": "U", "NORAD_CAT_ID": 33917, "ELEMENT_SET_NO": 999, "REV_AT_EPOCH": 83620, "BSTAR": 0.0012242, "MEAN_MOTION_DOT": 1.539e-05, "MEAN_MOTION_DDOT": 0}, "tle": {"line1": "1 33917U 93036DW  25338.46191750  .00001539  00000+0  12242-2 0  9998", "line2": "2 33917  74.1065 135.9660 0331095 238.7448 118.0848 13.69340059836204"}}, "geometry": {"type": "Point", "coordinates": [77.72579239980831, -71.10624341411791]}}, {"type": "Feature", "properties": {"norad_id": 33920, "name": "COSMOS 2251 DEB", "group": "cosmos-2251-debris", "lat": -58.94396841174079, "lon": 160.29326939508672, "alt_km": 699.7144032914466, "timestamp": "2025-12-05T14:45:15.690558+00:00", "meta": {"OBJECT_NAME": "COSMOS 2251 DEB", "OBJECT_ID": "1993-036DZ", "EPOCH": "2025-12-03T23:45:57.286368", "MEAN_MOTION": 14.5801116, "ECCENTRICITY": 0.00385766, "INCLINATION": 74.0629, "RA_OF_ASC_NODE": 315.0497, "ARG_OF_PERICENTER": 322.9779, "MEAN_ANOMALY": 36.8724, "EPHEMERIS_TYPE": 0, "CLASSIFICATION_TYPE": "U", "NORAD_CAT_ID": 33920, "ELEMENT_SET_NO": 999, "REV_AT_EPOCH": 87987, "BSTAR": 0.0041324358, "MEAN_MOTION_DOT": 0.00019211, "MEAN_MOTION_DDOT": 0}, "tle": {"line1": "1 33920U 93036DZ  25337.99024637  .00019211  00000+0  41324-2 0  9997", "line2": "2 33920  74.0629 315.0497 0038576 322.9779  36.8724 14.58011160879870"}}, "geometry": {"type": "Point", "coordinates": [160.29326939508672, -58.94396841174079]}}, {"type": "Feature", "properties": {"norad_id": 33922, "name": "COSMOS 2251 DEB", "group": "cosmos-2251-debris", "lat": -62.92443117244263, "lon": 15.151556114600105, "alt_km": 719.1898355686808, "timestamp": "2025-12-05T14:45:15.690568+00:00", "meta": {"OBJECT_NAME": "COSMOS 2251 DEB", "OBJECT_ID": "1993-036EB", "EPOCH": "2025-12-04T14:42:29.458944", "MEAN_MOTION": 14.49463112, "ECCENTRICITY": 0.002326, "INCLINATION": 74.0458, "RA_OF_ASC_NODE": 163.0004, "ARG_OF_PERICENTER": 274.5389, "MEAN_ANOMALY": 147.3765, "EPHEMERIS_TYPE": 0, "CLASSIFICATION_TYPE": "U", "NORAD_CAT_ID": 33922, "ELEMENT_SET_NO": 999, "REV_AT_EPOCH": 88460, "BSTAR": 0.0007028, "MEAN_MOTION_DOT": 2.674e-05, "MEAN_MOTION_DDOT": 0}, "tle": {"line1": "1 33922U 93036EB  25338.61284096  .00002674  00000+0  70280-3 0  9995", "line2": "2 33922  74.0458 163.0004 0023260 274.5389 147.3765 14.49463112884608"}}, "geometry": {"type": "Point", "coordinates": [15.151556114600105, -62.92443117244263]}}, {"type": "Feature", "properties": {"norad_id": 33924, "name": "COSMOS 2251 DEB", "group": "cosmos-2251-debris", "lat": -17.39531666341626, "lon": 106.84181678827379, "alt_km": 1218.7343530661947, "timestamp": "2025-12-05T14:45:15.690578+00:00", "meta": {"OBJECT_NAME": "COSMOS 2251 DEB", "OBJECT_ID": "1993-036ED", "EPOCH": "2025-12-04T07:30:49.502016", "MEAN_MOTION": 13.50199211, "ECCENTRICITY": 0.0404063, "INCLINATION": 73.9132, "RA_OF_ASC_NODE": 283.7464, "ARG_OF_PERICENTER": 320.6773, "MEAN_ANOMALY": 36.5615, "EPHEMERIS_TYPE": 0, "CLASSIFICATION_TYPE": "U", "NORAD_CAT_ID": 33924, "ELEMENT_SET_NO": 999, "REV_AT_EPOCH": 82625, "BSTAR": 0.0020861, "MEAN_MOTION_DOT": 2.189e-05, "MEAN_MOTION_DDOT": 0}, "tle": {"line1": "1 33924U 93036ED  25338.31307294  .00002189  00000+0  20861-2 0  9990", "line2": "2 33924  73.9132 283.7464 0404063 320.6773  36.5615 13.50199211826258"}}, "geometry": {"type": "Point", "coordinates": [106.84181678827379, -17.39531666341626]}}, {"type": "Feature", "properties": {"norad_id": 33928, "name": "COSMOS 2251 DEB", "group": "cosmos-2251-debris", "lat": 32.946917063917894, "lon": -124.79038287984146, "alt_km": 766.7814181223684, "timestamp": "2025-12-05T14:45:15.690588+00:00", "meta": {"OBJECT_NAME": "COSMOS 2251 DEB", "OBJECT_ID": "1993-036EH", "EPOCH": "2025-12-04T14:51:47.456928", "MEAN_MOTION": 14.4738137, "ECCENTRICITY": 0.0061061, "INCLINATION": 73.9259, "RA_OF_ASC_NODE": 67.8529, "ARG_OF_PERICENTER": 3.7594, "MEAN_ANOMALY": 356.4009, "EPHEMERIS_TYPE": 0, "CLASSIFICATION_TYPE": "U", "NORAD_CAT_ID": 33928, "ELEMENT_SET_NO": 999, "REV_AT_EPOCH": 88527, "BSTAR": 0.00046432, "MEAN_MOTION_DOT": 1.713e-05, "MEAN_MOTION_DDOT": 0}, "tle": {"line1": "1 33928U 93036EH  25338.61929927  .00001713  00000+0  46432-3 0  9995", "line2": "2 33928  73.9259  67.8529 0061061   3.7594 356.4009 14.47381370885276"}}, "geometry": {"type": "Point", "coordinates": [-124.79038287984146, 32.946917063917894]}}, {"type": "Feature", "properties": {"norad_id": 33932, "name": "COSMOS 2251 DEB", "group": "cosmos-2251-debris", "lat": 33.65075943804748, "lon": 138.0730653864964, "alt_km": 763.3269668667053, "timestamp": "2025-12-05T14:45:15.690599+00:00", "meta": {"OBJECT_NAME": "COSMOS 2251 DEB", "OBJECT_ID": "1993-036EM", "EPOCH": "2025-12-04T09:43:02.686080", "MEAN_MOTION": 14.38720862, "ECCENTRICITY": 0.0034905, "INCLINATION": 74.0335, "RA_OF_ASC_NODE": 331.2902, "ARG_OF_PERICENTER": 49.9065, "MEAN_ANOMALY": 310.514, "EPHEMERIS_TYPE": 0, "CLASSIFICATION_TYPE": "U", "NORAD_CAT_ID": 33932, "ELEMENT_SET_NO": 999, "REV_AT_EPOCH": 87878, "BSTAR": 0.00084021, "MEAN_MOTION_DOT": 2.572e-05, "MEAN_MOTION_DDOT": 0}, "tle": {"line1": "1 33932U 93036EM  25338.40489220  .00002572  00000+0  84021-3 0  9994", "line2": "2 33932  74.0335 331.2902 0034905  49.9065 310.5140 14.38720862878781"}}, "geometry": {"type": "Point", "coordinates": [138.0730653864964, 33.65075943804748]}}, {"type": "Feature", "properties": {"norad_id": 33933, "name": "COSMOS 2251 DEB", "group": "cosmos-2251-debris", "lat": 49.050065793058764, "lon": -126.06894316876075, "alt_km": 738.9893406113106, "timestamp": "2025-12-05T14:45:15.690609+00:00", "meta": {"OBJECT_NAME": "COSMOS 2251 DEB", "OBJECT_ID": "1993-036EN", "EPOCH": "2025-12-04T16:23:26.886912", "MEAN_MOTION": 14.3346819, "ECCENTRICITY": 0.0070828, "INCLINATION": 74.0892, "RA_OF_ASC_NODE": 74.8195, "ARG_OF_PERICENTER": 85.6569, "MEAN_ANOMALY": 275.2672, "EPHEMERIS_TYPE": 0, "CLASSIFICATION_TYPE": "U", "NORAD_CAT_ID": 33933, "ELEMENT_SET_NO": 999, "REV_AT_EPOCH": 87669, "BSTAR": 0.00059038, "MEAN_MOTION_DOT": 1.653e-05, "MEAN_MOTION_DDOT": 0}, "tle": {"line1": "1 33933U 93036EN  25338.68295008  .00001653  00000+0  59038-3 0  9993", "line2": "2 33933  74.0892  74.8195 0070828  85.6569 275.2672 14.33468190876697"}}, "geometry": {"type": "Point", "coordinates": [-126.06894316876075, 49.050065793058764]}}, {"type": "Feature", "properties": {"norad_id": 33934, "name": "COSMOS 2251 DEB", "group": "cosmos-2251-debris", "lat": -48.58481929072011, "lon": 95.21072289217554, "alt_km": 699.2335655924544, "timestamp": "2025-12-05T14:45:15.690619+00:00", "meta": {"OBJECT_NAME": "COSMOS 2251 DEB", "OBJECT_ID": "1993-036EP", "EPOCH": "2025-12-04T12:39:31.457952", "MEAN_MOTION": 14.58988826, "ECCENTRICITY": 0.0015985, "INCLINATION": 74.037, "RA_OF_ASC_NODE": 116.2163, "ARG_OF_PERICENTER": 239.8213, "MEAN_ANOMALY": 120.1369, "EPHEMERIS_TYPE": 0, "CLASSIFICATION_TYPE": "U", "NORAD_CAT_ID": 33934, "ELEMENT_SET_NO": 999, "REV_AT_EPOCH": 88619, "BSTAR": 0.0022451, "MEAN_MOTION_DOT": 0.00010545, "MEAN_MOTION_DDOT": 0}, "tle": {"line1": "1 33934U 93036EP  25338.52744743  .00010545  00000+0  22451-2 0  9990", "line2": "2 33934  74.0370 116.2163 0015985 239.8213 120.1369 14.58988826886194"}}, "geometry": {"type": "Point", "coordinates": [95.21072289217554, -48.58481929072011]}}, {"type": "Feature", "properties": {"norad_id": 33936, "name": "COSMOS 2251 DEB", "group": "cosmos-2251-debris", "lat": -25.460354824504595, "lon": -121.05620389715112, "alt_km": 677.9617504215848, "timestamp": "2025-12-05T14:45:15.690629+00:00", "meta": {"OBJECT_NAME": "COSMOS 2251 DEB", "OBJECT_ID": "1993-036ER", "EPOCH": "2025-12-04T14:47:27.724704", "MEAN_MOTION": 14.60184095, "ECCENTRICITY": 0.002807, "INCLINATION": 74.0196, "RA_OF_ASC_NODE": 53.0088, "ARG_OF_PERICENTER": 209.8422, "MEAN_ANOMALY": 150.1144, "EPHEMERIS_TYPE": 0, "CLASSIFICATION_TYPE": "U", "NORAD_CAT_ID": 33936, "ELEMENT_SET_NO": 999, "REV_AT_EPOCH": 88771, "BSTAR": 0.0017721, "MEAN_MOTION_DOT": 8.566e-05, "MEAN_MOTION_DDOT": 0}, "tle": {"line1": "1 33936U 93036ER  25338.61629311  .00008566  00000+0  17721-2 0  9999", "line2": "2 33936  74.0196  53.0088 0028070 209.8422 150.1144 14.60184095887716"}}, "geometry": {"type": "Point", "coordinates": [-121.05620389715112, -25.460354824504595]}}, {"type": "Feature", "properties": {"norad_id": 33938, "name": "COSMOS 2251 DEB", "group": "cosmos-2251-debris", "lat": 42.9370884919891, "lon": -124.08482632032296, "alt_km": 734.8581674003708, "timestamp": "2025-12-05T14:45:15.690640+00:00", "meta": {"OBJECT_NAME": "COSMOS 2251 DEB", "OBJECT_ID": "1993-036ET", "EPOCH": "2025-12-04T09:13:36.179328", "MEAN_MOTION": 14.46753624, "ECCENTRICITY": 0.001687, "INCLINATION": 74.0461, "RA_OF_ASC_NODE": 222.7746, "ARG_OF_PERICENTER": 305.573, "MEAN_ANOMALY": 174.1295, "EPHEMERIS_TYPE": 0, "CLASSIFICATION_TYPE": "U", "NORAD_CAT_ID": 33938, "ELEMENT_SET_NO": 999, "REV_AT_EPOCH": 88279, "BSTAR": 0.0010212, "MEAN_MOTION_DOT": 3.677e-05, "MEAN_MOTION_DDOT": 0}, "tle": {"line1": "1 33938U 93036ET  25338.38444652  .00003677  00000+0  10212-2 0  9994", "line2": "2 33938  74.0461 222.7746 0016870 305.5730 174.1295 14.46753624882790"}}, "geometry": {"type": "Point", "coordinates": [-124.08482632032296, 42.9370884919891]}}]}